TERA_L_00001007-13
1 10372U 25985BT  26075.69965278  .00000000  00000+0  00000-0 0  9993
2 10372  82.5000 180.0000 0000000   0.0000  84.0000 15.15322385    17
TERA_L_00001007-14
1 10373U 24190DR  26075.69965278  .00000000  00000+0  00000-0 0  9991
2 10373  82.5000 180.0000 0000000   0.0000  90.0000 15.15322385    15
TERA_L_00001007-15
1 10374U 25629SA  26075.69965278  .00000000  00000+0  00000-0 0  9990
2 10374  82.5000 180.0000 0000000   0.0000  96.0000 15.15322385    12
TERA_L_00001007-16
1 10375U 22690UH  26075.69965278  .00000000  00000+0  00000-0 0  9996
2 10375  82.5000 180.0000 0000000   0.0000 102.0000 15.15322385    11
TERA_L_00001007-17
1 10376U 24472WM  26075.69965278  .00000000  00000+0  00000-0 0  9997
2 10376  82.5000 180.0000 0000000   0.0000 108.0000 15.15322385    18
TERA_L_00001007-18
1 10377U 26526BJ  26075.69965278  .00000000  00000+0  00000-0 0  9990
2 10377  82.5000 180.0000 0000000   0.0000 114.0000 15.15322385    16
TERA_L_00001007-19
1 10378U 22456UP  26075.69965278  .00000000  00000+0  00000-0 0  9999
2 10378  82.5000 180.0000 0000000   0.0000 120.0000 15.15322385    14
TERA_L_00001007-20
1 10379U 25719JS  26075.69965278  .00000000  00000+0  00000-0 0  9995
2 10379  82.5000 180.0000 0000000   0.0000 126.0000 15.15322385    11
TERA_L_00001007-21
1 10380U 26946CH  26075.69965278  .00000000  00000+0  00000-0 0  9990
2 10380  82.5000 180.0000 0000000   0.0000 132.0000 15.15322385    10
TERA_L_00001007-22
1 10381U 24342DY  26075.69965278  .00000000  00000+0  00000-0 0  9999
2 10381  82.5000 180.0000 0000000   0.0000 138.0000 15.15322385    17
TERA_L_00001007-23
1 10382U 23004EL  26075.69965278  .00000000  00000+0  00000-0 0  9994
2 10382  82.5000 180.0000 0000000   0.0000 144.0000 15.15322385    15
TERA_L_00001007-24
1 10383U 24140DX  26075.69965278  .00000000  00000+0  00000-0 0  9997
2 10383  82.5000 180.0000 0000000   0.0000 150.0000 15.15322385    13
TERA_L_00001007-25
1 10384U 23549MG  26075.69965278  .00000000  00000+0  00000-0 0  9990
2 10384  82.5000 180.0000 0000000   0.0000 156.0000 15.15322385    10
TERA_L_00001007-26
1 10385U 24711GT  26075.69965278  .00000000  00000+0  00000-0 0  9993
2 10385  82.5000 180.0000 0000000   0.0000 162.0000 15.15322385    18
TERA_L_00001007-27
1 10386U 24647DX  26075.69965278  .00000000  00000+0  00000-0 0  9992
2 10386  82.5000 180.0000 0000000   0.0000 168.0000 15.15322385    15
TERA_L_00001007-28
1 10387U 22953EP  26075.69965278  .00000000  00000+0  00000-0 0  9991
2 10387  82.5000 180.0000 0000000   0.0000 174.0000 15.15322385    13
TERA_L_00001007-29
1 10388U 24359YW  26075.69965278  .00000000  00000+0  00000-0 0  9994
2 10388  82.5000 180.0000 0000000   0.0000 180.0000 15.15322385    11
TERA_L_00001007-30
1 10389U 22505IM  26075.69965278  .00000000  00000+0  00000-0 0  9996
2 10389  82.5000 180.0000 0000000   0.0000 186.0000 15.15322385    18
TERA_L_00001007-31
1 10390U 23986RD  26075.69965278  .00000000  00000+0  00000-0 0  9992
2 10390  82.5000 180.0000 0000000   0.0000 192.0000 15.15322385    17
TERA_L_00001007-32
1 10391U 26774NS  26075.69965278  .00000000  00000+0  00000-0 0  9991
2 10391  82.5000 180.0000 0000000   0.0000 198.0000 15.15322385    14
TERA_L_00001007-33
1 10392U 25806JQ  26075.69965278  .00000000  00000+0  00000-0 0  9997
2 10392  82.5000 180.0000 0000000   0.0000 204.0000 15.15322385    13
TERA_L_00001007-34
1 10393U 25009IK  26075.69965278  .00000000  00000+0  00000-0 0  9993
2 10393  82.5000 180.0000 0000000   0.0000 210.0000 15.15322385    11
TERA_L_00001007-35
1 10394U 22217MB  26075.69965278  .00000000  00000+0  00000-0 0  9992
2 10394  82.5000 180.0000 0000000   0.0000 216.0000 15.15322385    18
TERA_L_00001007-36
1 10395U 24193JX  26075.69965278  .00000000  00000+0  00000-0 0  9998
2 10395  82.5000 180.0000 0000000   0.0000 222.0000 15.15322385    16
TERA_L_00001007-37
1 10396U 24057KF  26075.69965278  .00000000  00000+0  00000-0 0  9998
2 10396  82.5000 180.0000 0000000   0.0000 228.0000 15.15322385    13
TERA_L_00001007-38
1 10397U 24778AX  26075.69965278  .00000000  00000+0  00000-0 0  9999
2 10397  82.5000 180.0000 0000000   0.0000 234.0000 15.15322385    11
TERA_L_00001007-39
1 10398U 24344XJ  26075.69965278  .00000000  00000+0  00000-0 0  9999
2 10398  82.5000 180.0000 0000000   0.0000 240.0000 15.15322385    19
TERA_L_00001007-40
1 10399U 25356PX  26075.69965278  .00000000  00000+0  00000-0 0  9994
2 10399  82.5000 180.0000 0000000   0.0000 246.0000 15.15322385    16
TERA_L_00001007-41
1 10400U 24115X   26075.69965278  .00000000  00000+0  00000-0 0  9999
2 10400  82.5000 180.0000 0000000   0.0000 252.0000 15.15322385    16
TERA_L_00001007-42
1 10401U 22257ZD  26075.69965278  .00000000  00000+0  00000-0 0  9995
2 10401  82.5000 180.0000 0000000   0.0000 258.0000 15.15322385    13
TERA_L_00001007-43
1 10402U 26260LP  26075.69965278  .00000000  00000+0  00000-0 0  9994
2 10402  82.5000 180.0000 0000000   0.0000 264.0000 15.15322385    11
TERA_L_00001007-44
1 10403U 25455OT  26075.69965278  .00000000  00000+0  00000-0 0  9990
2 10403  82.5000 180.0000 0000000   0.0000 270.0000 15.15322385    19
TERA_L_00001007-45
1 10404U 22355VG  26075.69965278  .00000000  00000+0  00000-0 0  9997
2 10404  82.5000 180.0000 0000000   0.0000 276.0000 15.15322385    16
TERA_L_00001007-46
1 10405U 24434KP  26075.69965278  .00000000  00000+0  00000-0 0  9998
2 10405  82.5000 180.0000 0000000   0.0000 282.0000 15.15322385    14
TERA_L_00001007-47
1 10406U 24069WO  26075.69965278  .00000000  00000+0  00000-0 0  9993
2 10406  82.5000 180.0000 0000000   0.0000 288.0000 15.15322385    11
TERA_L_00001007-48
1 10407U 23361JB  26075.69965278  .00000000  00000+0  00000-0 0  9998
2 10407  82.5000 180.0000 0000000   0.0000 294.0000 15.15322385    19
TERA_L_00001007-49
1 10408U 23282WE  26075.69965278  .00000000  00000+0  00000-0 0  9991
2 10408  82.5000 180.0000 0000000   0.0000 300.0000 15.15322385    18
TERA_L_00001007-50
1 10409U 25960RC  26075.69965278  .00000000  00000+0  00000-0 0  9997
2 10409  82.5000 180.0000 0000000   0.0000 306.0000 15.15322385    15
TERA_L_00001007-51
1 10410U 25471GB  26075.69965278  .00000000  00000+0  00000-0 0  9996
2 10410  82.5000 180.0000 0000000   0.0000 312.0000 15.15322385    14
TERA_L_00001007-52
1 10411U 23774DI  26075.69965278  .00000000  00000+0  00000-0 0  9991
2 10411  82.5000 180.0000 0000000   0.0000 318.0000 15.15322385    11
TERA_L_00001007-53
1 10412U 23851FA  26075.69965278  .00000000  00000+0  00000-0 0  9998
2 10412  82.5000 180.0000 0000000   0.0000 324.0000 15.15322385    19
TERA_L_00001007-54
1 10413U 23055SV  26075.69965278  .00000000  00000+0  00000-0 0  9995
2 10413  82.5000 180.0000 0000000   0.0000 330.0000 15.15322385    17
TERA_L_00001007-55
1 10414U 24449HT  26075.69965278  .00000000  00000+0  00000-0 0  9994
2 10414  82.5000 180.0000 0000000   0.0000 336.0000 15.15322385    14
TERA_L_00001007-56
1 10415U 22054YO  26075.69965278  .00000000  00000+0  00000-0 0  9995
2 10415  82.5000 180.0000 0000000   0.0000 342.0000 15.15322385    12
TERA_L_00001007-57
1 10416U 22684PA  26075.69965278  .00000000  00000+0  00000-0 0  9995
2 10416  82.5000 180.0000 0000000   0.0000 348.0000 15.15322385    19
TERA_L_00001007-58
1 10417U 23517FH  26075.69965278  .00000000  00000+0  00000-0 0  9992
2 10417  82.5000 180.0000 0000000   0.0000 354.0000 15.15322385    17
TERA_L_00001007-59
1 10418U 25251SH  26075.69965278  .00000000  00000+0  00000-0 0  9990
2 10418  82.5000 180.0000 0000000   0.0000   0.0000 15.15322385    16
TERA_L_00001007-60
1 10419U 22098YF  26075.69965278  .00000000  00000+0  00000-0 0  9997
2 10419  82.5000 180.0000 0000000   0.0000   6.0000 15.15322385    13
TERA_L_00001008-01
1 10420U 22819ED  26075.69965278  .00000000  00000+0  00000-0 0  9990
2 10420  82.5000 210.0000 0000000   0.0000  14.0000 15.15322385    18
TERA_L_00001008-02
1 10421U 25607UZ  26075.69965278  .00000000  00000+0  00000-0 0  9999
2 10421  82.5000 210.0000 0000000   0.0000  20.0000 15.15322385    16
TERA_L_00001008-03
1 10422U 25901QO  26075.69965278  .00000000  00000+0  00000-0 0  9997
2 10422  82.5000 210.0000 0000000   0.0000  26.0000 15.15322385    13
TERA_L_00001008-04
1 10423U 24448HP  26075.69965278  .00000000  00000+0  00000-0 0  9993
2 10423  82.5000 210.0000 0000000   0.0000  32.0000 15.15322385    11
TERA_L_00001008-05
1 10424U 22808JC  26075.69965278  .00000000  00000+0  00000-0 0  9992
2 10424  82.5000 210.0000 0000000   0.0000  38.0000 15.15322385    18
TERA_L_00001008-06
1 10425U 23271AR  26075.69965278  .00000000  00000+0  00000-0 0  9998
2 10425  82.5000 210.0000 0000000   0.0000  44.0000 15.15322385    16
TERA_L_00001008-07
1 10426U 24600EN  26075.69965278  .00000000  00000+0  00000-0 0  9996
2 10426  82.5000 210.0000 0000000   0.0000  50.0000 15.15322385    14
TERA_L_00001008-08
1 10427U 25201NF  26075.69965278  .00000000  00000+0  00000-0 0  9995
2 10427  82.5000 210.0000 0000000   0.0000  56.0000 15.15322385    11
TERA_L_00001008-09
1 10428U 23416WU  26075.69965278  .00000000  00000+0  00000-0 0  9992
2 10428  82.5000 210.0000 0000000   0.0000  62.0000 15.15322385    19
TERA_L_00001008-10
1 10429U 24258BK  26075.69965278  .00000000  00000+0  00000-0 0  9998
2 10429  82.5000 210.0000 0000000   0.0000  68.0000 15.15322385    16
TERA_L_00001008-11
1 10430U 25668TB  26075.69965278  .00000000  00000+0  00000-0 0  9996
2 10430  82.5000 210.0000 0000000   0.0000  74.0000 15.15322385    15
TERA_L_00001008-12
1 10431U 25796RI  26075.69965278  .00000000  00000+0  00000-0 0  9999
2 10431  82.5000 210.0000 0000000   0.0000  80.0000 15.15322385    13
TERA_L_00001008-13
1 10432U 25835UF  26075.69965278  .00000000  00000+0  00000-0 0  9994
2 10432  82.5000 210.0000 0000000   0.0000  86.0000 15.15322385    10
TERA_L_00001008-14
1 10433U 24262WJ  26075.69965278  .00000000  00000+0  00000-0 0  9998
2 10433  82.5000 210.0000 0000000   0.0000  92.0000 15.15322385    18
